name,email,phone,address,city,passport_id,specialization,verified
John Doe,johndoe@example.com,(123) 555-1234,123 Main St, Cityville,1331223 12312312,math,true
Jane Smith,janesmith@example.com,(456) 555-5678,456 Elm St, Townville,2334354 23456789,informatics,true
Robert Johnson,robertjohnson@example.com,(789) 555-9012,789 Oak St, Villageton,1345345 45678901,chemistry,true
Emily Davis,emilydavis@example.com,(321) 555-3456,321 Maple St, Hamletville,2345676 56789012,math,true
Michael Wilson,michaelwilson@example.com,(654) 555-7890,654 Pine St, Suburbia,3456787 67890123,informatics,true
Jennifer Lee,jenniferlee@example.com,(987) 555-2345,987 Birch St, Countryside,4567898 78901234,chemistry,true
William Clark,williamclark@example.com,(123) 555-6789,123 Cedar St, Villageville,5678909 89012345,math,true
Sarah Baker,sarahbaker@example.com,(456) 555-0123,456 Redwood St, Metroville,6789010 90123456,informatics,true
David Lewis,davidlewis@example.com,(789) 555-3456,789 Sequoia St, Townsville,7890121 01234567,chemistry,true
Jessica Adams,jessicaadams@example.com,(321) 555-6789,321 Palm St, Cityburg,8901232 12345678,math,true
James Taylor,jamestaylor@example.com,(654) 555-9012,654 Olive St, Townburg,9012343 23456789,informatics,true
Elizabeth Martin,elizabethmartin@example.com,(987) 555-2345,987 Walnut St, Villagetown,0123454 34567890,chemistry,true
Daniel Anderson,danielanderson@example.com,(123) 555-5678,123 Pineapple St, Hamlettown,1234565 45678901,math,true
Linda Hall,lindahall@example.com,(456) 555-7890,456 Banana St, Villageton,2345676 56789012,informatics,true
Charles Harris,charlesharris@example.com,(789) 555-0123,789 Grape St, Metroburg,3456787 67890123,chemistry,true
Karen White,karenwhite@example.com,(321) 555-2345,321 Lemon St, Suburbville,4567898 78901234,math,true
Matthew Moore,matthewmoore@example.com,(654) 555-5678,654 Strawberry St, Citytown,5678909 89012345,informatics,true
Patricia King,patriciaking@example.com,(987) 555-9012,987 Blueberry St, Countrysville,6789010 90123456,chemistry,true
Richard Brown,richardbrown@example.com,(123) 555-2345,123 Raspberry St, Villagecity,8901232 12345678,math,true
Susan Turner,susanturner@example.com,(456) 555-6789,456 Blackberry St, Townsville,9012343 23456789,informatics,true
Joseph Rodriguez,josephrodriguez@example.com,(789) 555-3456,789 Orange St, Metrocity,0123454 34567890,chemistry,true
Nancy Scott,nancyscott@example.com,(321) 555-9012,321 Cherry St, Hamletburg,1234565 45678901,math,true
Thomas Hall,thomashall@example.com,(654) 555-2345,654 Apple St, Cityton,2345676 56789012,informatics,true
Mary Green,marygreen@example.com,(987) 555-5678,987 Pear St, Villageton,3456787 67890123,chemistry,true
Christopher Adams,christopheradams@example.com,(123) 555-5678,123 Plum St, Countrysburg,4567898 78901234,math,true
Lisa Turner,lisaturner@example.com,(456) 555-2345,456 Banana St, Suburbtown,5678909 89012345,informatics,true
Daniel Smith,danielsmith@example.com,(789) 555-5678,789 Kiwi St, Villageburg,6789010 90123456,chemistry,true
Betty Young,bettyyoung@example.com,(321) 555-9012,321 Papaya St, Metroburg,0123454 34567890,math,true
Kevin Perez,kevinperez@example.com,(654) 555-2345,654 Mango St, Cityville,1234565 45678901,informatics,true
Dorothy Martinez,dorothymartinez@example.com,(987) 555-5678,987 Grapefruit St, Townsville,2345676 56789012,chemistry,true
Mark Johnson,markjohnson@example.com,(123) 555-9012,123 Lime St, Villageton,3456787 67890123,math,true
Ashley Lee,ashleylee@example.com,(456) 555-5678,456 Lemon St, Countryside,4567898 78901234,informatics,true
George Davis,georgedavis@example.com,(789) 555-2345,789 Orange St, Metrocity,5678909 89012345,chemistry,true
Karen Taylor,karentaylor@example.com,(321) 555-9012,321 Tangerine St, Hamletburg,6789010 90123456,math,true
Michael Miller,michaelmiller@example.com,(654) 555-5678,654 Clementine St, Cityton,0123454 34567890,informatics,true
Cynthia Brown,cynthiabrown@example.com,(987) 555-5678,987 Apricot St, Villagecity,1234565 45678901,chemistry,true
Matthew Turner,matthewturner@example.com,(123) 555-2345,123 Cherry St, Metroville,2345676 56789012,math,true
Donna Jackson,donnajackson@example.com,(456) 555-9012,456 Cranberry St, Townburg,3456787 67890123,informatics,true
Paul Harris,paulharris@example.com,(789) 555-5678,789 Blueberry St, Villagetown,4567898 78901234,chemistry,true
Sharon Clark,sharonclark@example.com,(321) 555-9012,321 Raspberry St, Suburbville,5678909 89012345,math,true
Edward Anderson,edwardanderson@example.com,(654) 555-5678,654 Blackberry St, Citytown,6789010 90123456,informatics,true
